{
  "norad_id": 63524,
  "name": "TJS-17",
  "history": [
    {
      "epoch": "2026-03-28T18:04:51.497184Z",
      "apogee_km": 35804.414513738266,
      "perigee_km": 35769.35851318917,
      "latitude_deg": 0.04371110859725589,
      "longitude_deg": 164.47692746074384,
      "height_km": 35783.66487375298,
      "semi_major_axis_km": 42165.02351346372,
      "eccentricity": 0.0004157,
      "inclination_deg": 0.8567,
      "raan_deg": 83.2488,
      "arg_perigee_deg": 259.6392,
      "mean_anomaly_deg": 278.997,
      "mean_motion_rev_day": 1.00270745
    },
    {
      "epoch": "2026-03-30T17:02:03.492096Z",
      "apogee_km": 35804.155266417336,
      "perigee_km": 35769.43666061518,
      "latitude_deg": 0.2480659518965028,
      "longitude_deg": 164.47035717908045,
      "height_km": 35788.4755771619,
      "semi_major_axis_km": 42164.932963516265,
      "eccentricity": 0.0004117,
      "inclination_deg": 0.8619,
      "raan_deg": 83.2337,
      "arg_perigee_deg": 262.0162,
      "mean_anomaly_deg": 262.8579,
      "mean_motion_rev_day": 1.00271068
    },
    {
      "epoch": "2026-03-31T16:20:51.600192Z",
      "apogee_km": 35804.02943901903,
      "perigee_km": 35769.471097414,
      "latitude_deg": 0.3776301950585504,
      "longitude_deg": 164.46861661013816,
      "height_km": 35791.54106425191,
      "semi_major_axis_km": 42164.887268216524,
      "eccentricity": 0.0004098,
      "inclination_deg": 0.8644,
      "raan_deg": 83.2259,
      "arg_perigee_deg": 263.2976,
      "mean_anomaly_deg": 252.2402,
      "mean_motion_rev_day": 1.00271231
    },
    {
      "epoch": "2026-04-01T17:13:32.570112Z",
      "apogee_km": 35803.88534371984,
      "perigee_km": 35769.520998980195,
      "latitude_deg": 0.17707928558424532,
      "longitude_deg": 164.4611552308636,
      "height_km": 35787.71266752793,
      "semi_major_axis_km": 42164.84017135002,
      "eccentricity": 0.0004075,
      "inclination_deg": 0.867,
      "raan_deg": 83.2178,
      "arg_perigee_deg": 264.6487,
      "mean_anomaly_deg": 265.0883,
      "mean_motion_rev_day": 1.00271399
    },
    {
      "epoch": "2026-04-02T18:26:58.505280Z",
      "apogee_km": 35803.7406781514,
      "perigee_km": 35769.57875984967,
      "latitude_deg": -0.11280324578794529,
      "longitude_deg": 164.45639982269944,
      "height_km": 35782.33442925727,
      "semi_major_axis_km": 42164.79671900054,
      "eccentricity": 0.0004051,
      "inclination_deg": 0.8695,
      "raan_deg": 83.2089,
      "arg_perigee_deg": 265.9983,
      "mean_anomaly_deg": 283.1407,
      "mean_motion_rev_day": 1.00271554
    },
    {
      "epoch": "2026-04-03T17:10:42.900384Z",
      "apogee_km": 35803.61623447124,
      "perigee_km": 35769.63143723755,
      "latitude_deg": 0.15491119594973515,
      "longitude_deg": 164.4551297026393,
      "height_km": 35788.006806140314,
      "semi_major_axis_km": 42164.7608358544,
      "eccentricity": 0.000403,
      "inclination_deg": 0.8718,
      "raan_deg": 83.201,
      "arg_perigee_deg": 267.2192,
      "mean_anomaly_deg": 263.7959,
      "mean_motion_rev_day": 1.00271682
    },
    {
      "epoch": "2026-04-05T16:56:57.024384Z",
      "apogee_km": 35803.33443786014,
      "perigee_km": 35769.78820387605,
      "latitude_deg": 0.1727747812420284,
      "longitude_deg": 164.45355284498677,
      "height_km": 35788.970951948046,
      "semi_major_axis_km": 42164.6983208681,
      "eccentricity": 0.0003978,
      "inclination_deg": 0.8765,
      "raan_deg": 83.1831,
      "arg_perigee_deg": 269.3936,
      "mean_anomaly_deg": 260.1608,
      "mean_motion_rev_day": 1.00271905
    },
    {
      "epoch": "2026-04-06T18:00:23.527584Z",
      "apogee_km": 35803.19478234011,
      "perigee_km": 35769.88468771944,
      "latitude_deg": -0.08210270423344278,
      "longitude_deg": 164.45125532229554,
      "height_km": 35784.312526666006,
      "semi_major_axis_km": 42164.67673502978,
      "eccentricity": 0.000395,
      "inclination_deg": 0.879,
      "raan_deg": 83.1729,
      "arg_perigee_deg": 270.294,
      "mean_anomaly_deg": 276.1608,
      "mean_motion_rev_day": 1.00271982
    },
    {
      "epoch": "2026-04-07T16:52:07.085856Z",
      "apogee_km": 35803.06269898455,
      "perigee_km": 35769.98873754834,
      "latitude_deg": 0.15956605943247215,
      "longitude_deg": 164.45435447343536,
      "height_km": 35789.113070152445,
      "semi_major_axis_km": 42164.662718266445,
      "eccentricity": 0.0003922,
      "inclination_deg": 0.8812,
      "raan_deg": 83.1635,
      "arg_perigee_deg": 270.9642,
      "mean_anomaly_deg": 259.3714,
      "mean_motion_rev_day": 1.00272032
    },
    {
      "epoch": "2026-04-08T17:30:12.119616Z",
      "apogee_km": 35802.93425168954,
      "perigee_km": 35770.104850099015,
      "latitude_deg": 0.0004279368150802744,
      "longitude_deg": 164.45344326212583,
      "height_km": 35786.23775770721,
      "semi_major_axis_km": 42164.65655089428,
      "eccentricity": 0.0003893,
      "inclination_deg": 0.8837,
      "raan_deg": 83.1539,
      "arg_perigee_deg": 271.476,
      "mean_anomaly_deg": 269.4031,
      "mean_motion_rev_day": 1.00272054
    },
    {
      "epoch": "2026-04-09T18:45:31.426272Z",
      "apogee_km": 35802.81421773264,
      "perigee_km": 35770.229369416964,
      "latitude_deg": -0.296664855464424,
      "longitude_deg": 164.45465440795172,
      "height_km": 35780.79772613823,
      "semi_major_axis_km": 42164.6587935748,
      "eccentricity": 0.0003864,
      "inclination_deg": 0.8862,
      "raan_deg": 83.1445,
      "arg_perigee_deg": 271.8128,
      "mean_anomaly_deg": 288.9446,
      "mean_motion_rev_day": 1.00272046
    },
    {
      "epoch": "2026-04-10T18:12:28.942848Z",
      "apogee_km": 35802.7065330682,
      "perigee_km": 35770.35779888407,
      "latitude_deg": -0.18959256073174316,
      "longitude_deg": 164.45440688910944,
      "height_km": 35782.843358126855,
      "semi_major_axis_km": 42164.66916597614,
      "eccentricity": 0.0003836,
      "inclination_deg": 0.8886,
      "raan_deg": 83.1356,
      "arg_perigee_deg": 271.8941,
      "mean_anomaly_deg": 281.5759,
      "mean_motion_rev_day": 1.00272009
    },
    {
      "epoch": "2026-04-11T19:12:55.936224Z",
      "apogee_km": 35802.60782250426,
      "perigee_km": 35770.49519573571,
      "latitude_deg": -0.4204088913297559,
      "longitude_deg": 164.45698226472828,
      "height_km": 35778.63396391832,
      "semi_major_axis_km": 42164.68850911999,
      "eccentricity": 0.0003808,
      "inclination_deg": 0.8912,
      "raan_deg": 83.1259,
      "arg_perigee_deg": 271.8238,
      "mean_anomaly_deg": 297.7963,
      "mean_motion_rev_day": 1.0027194
    },
    {
      "epoch": "2026-04-13T17:37:59.917728Z",
      "apogee_km": 35802.4938597173,
      "perigee_km": 35770.710079482014,
      "latitude_deg": -0.10132772666991835,
      "longitude_deg": 164.45211263450355,
      "height_km": 35784.33317855111,
      "semi_major_axis_km": 42164.73896959966,
      "eccentricity": 0.0003769,
      "inclination_deg": 0.8962,
      "raan_deg": 83.1039,
      "arg_perigee_deg": 271.2083,
      "mean_anomaly_deg": 276.6077,
      "mean_motion_rev_day": 1.0027176
    },
    {
      "epoch": "2026-04-14T18:19:15.953376Z",
      "apogee_km": 35802.446568251726,
      "perigee_km": 35770.81455962526,
      "latitude_deg": -0.27170950360040946,
      "longitude_deg": 164.45086674048585,
      "height_km": 35781.23929872395,
      "semi_major_axis_km": 42164.76756393849,
      "eccentricity": 0.0003751,
      "inclination_deg": 0.8989,
      "raan_deg": 83.0912,
      "arg_perigee_deg": 270.8509,
      "mean_anomaly_deg": 288.3087,
      "mean_motion_rev_day": 1.00271658
    },
    {
      "epoch": "2026-04-15T18:13:03.794016Z",
      "apogee_km": 35802.404063944356,
      "perigee_km": 35770.906963936446,
      "latitude_deg": -0.2643806944926568,
      "longitude_deg": 164.44896144209332,
      "height_km": 35781.34330279728,
      "semi_major_axis_km": 42164.7925139404,
      "eccentricity": 0.0003735,
      "inclination_deg": 0.9016,
      "raan_deg": 83.0793,
      "arg_perigee_deg": 270.4845,
      "mean_anomaly_deg": 288.1176,
      "mean_motion_rev_day": 1.00271569
    },
    {
      "epoch": "2026-04-16T18:16:54.552864Z",
      "apogee_km": 35802.35229515795,
      "perigee_km": 35770.998540644,
      "latitude_deg": -0.2950345981394496,
      "longitude_deg": 164.44777633939353,
      "height_km": 35780.796544999306,
      "semi_major_axis_km": 42164.81241790098,
      "eccentricity": 0.0003718,
      "inclination_deg": 0.9044,
      "raan_deg": 83.0684,
      "arg_perigee_deg": 270.1268,
      "mean_anomaly_deg": 290.4355,
      "mean_motion_rev_day": 1.00271498
    },
    {
      "epoch": "2026-04-18T17:35:57.120000Z",
      "apogee_km": 35802.25583752227,
      "perigee_km": 35771.12976016477,
      "latitude_deg": -0.17818267325905507,
      "longitude_deg": 164.44710883237804,
      "height_km": 35782.864290275196,
      "semi_major_axis_km": 42164.82979884352,
      "eccentricity": 0.0003691,
      "inclination_deg": 0.9101,
      "raan_deg": 83.052,
      "arg_perigee_deg": 269.5713,
      "mean_anomaly_deg": 282.7102,
      "mean_motion_rev_day": 1.00271436
    },
    {
      "epoch": "2026-04-19T17:12:55.768032Z",
      "apogee_km": 35802.21761860021,
      "perigee_km": 35771.15900827433,
      "latitude_deg": -0.10829117814171355,
      "longitude_deg": 164.44895472807934,
      "height_km": 35784.10806379119,
      "semi_major_axis_km": 42164.82531343727,
      "eccentricity": 0.0003683,
      "inclination_deg": 0.913,
      "raan_deg": 83.0446,
      "arg_perigee_deg": 269.4776,
      "mean_anomaly_deg": 278.025,
      "mean_motion_rev_day": 1.00271452
    }
  ]
}